<?xml version="1.0" encoding="UTF-8"?>
<oem xmlns:xsi="http://www.w3.org/2001/XMLSchema-instance" xsi:noNamespaceSchemaLocation="http://sanaregistry.org/r/ndmxml/ndmxml-1.0-master.xsd" id="CCSDS_OEM_VERS" version="1.0">
    <header>
        <CREATION_DATE>1996-11-04T17:22:31</CREATION_DATE>
        <ORIGINATOR>NASA/JPL</ORIGINATOR>
    </header>
    <body>
        <segment>
            <metadata>
                <OBJECT_NAME>MARS GLOBAL SURVEYOR</OBJECT_NAME>
                <OBJECT_ID>1996-062A</OBJECT_ID>
                <CENTER_NAME>MARS BARYCENTER</CENTER_NAME>
                <REF_FRAME>EME2000</REF_FRAME>
                <TIME_SYSTEM>UTC</TIME_SYSTEM>
                <START_TIME>1996-12-18T12:00:00.331</START_TIME>
                <USEABLE_START_TIME>1996-12-18T12:10:00.331</USEABLE_START_TIME>
                <USEABLE_STOP_TIME>1996-12-28T21:23:00.331</USEABLE_STOP_TIME>
                <STOP_TIME>1996-12-28T21:28:00.331</STOP_TIME>
                <INTERPOLATION>HERMITE</INTERPOLATION>
                <INTERPOLATION_DEGREE>7</INTERPOLATION_DEGREE>
            </metadata>
            <data>
                <COMMENT>Produced by M.R. Sombedody, MSOO NAV/JPL, 1996 OCT 11.  It is</COMMENT>
                <COMMENT>to be used for DSN scheduling purposes only.</COMMENT>
                <stateVector>
                    <EPOCH>1996-12-18T12:00:00.331</EPOCH>
                    <X>2789.6</X>
                    <Y>-280.0</Y>
                    <Z>-1746.8</Z>
                    <X_DOT>4.73</X_DOT>
                    <Y_DOT>-2.50</Y_DOT>
                    <Z_DOT>-1.04</Z_DOT>
                    <X_DDOT>0.008</X_DDOT>
                    <Y_DDOT>0.001</Y_DDOT>
                    <Z_DDOT>-0.159</Z_DDOT>
                </stateVector>
                <stateVector>
                    <EPOCH>1996-12-18T12:01:00.331</EPOCH>
                    <X>2783.4</X>
                    <Y>-308.1</Y>
                    <Z>-1877.1</Z>
                    <X_DOT>5.19</X_DOT>
                    <Y_DOT>-2.42</Y_DOT>
                    <Z_DOT>-2.00</Z_DOT>
                    <X_DDOT>0.008</X_DDOT>
                    <Y_DDOT>0.001</Y_DDOT>
                    <Z_DDOT>0.001</Z_DDOT>
                </stateVector>
                <stateVector>
                    <EPOCH>1996-12-18T12:02:00.331</EPOCH>
                    <X>2776.0</X>
                    <Y>-336.9</Y>
                    <Z>-2008.7</Z>
                    <X_DOT>5.64</X_DOT>
                    <Y_DOT>-2.34</Y_DOT>
                    <Z_DOT>-1.95</Z_DOT>
                    <X_DDOT>0.008</X_DDOT>
                    <Y_DDOT>0.001</Y_DDOT>
                    <Z_DDOT>0.159</Z_DDOT>
                </stateVector>
                <stateVector>
                    <EPOCH>1996-12-28T21:28:00.331</EPOCH>
                    <X>-3881.0</X>
                    <Y>564.0</Y>
                    <Z>-682.8</Z>
                    <X_DOT>-3.29</X_DOT>
                    <Y_DOT>-3.67</Y_DOT>
                    <Z_DOT>1.64</Z_DOT>
                    <X_DDOT>-0.003</X_DDOT>
                    <Y_DDOT>0.000</Y_DDOT>
                    <Z_DDOT>0.000</Z_DDOT>
                </stateVector>
            </data>
        </segment>
    </body>
</oem>
